CCSDS_OMM_VERS,COMMENT,CREATION_DATE,ORIGINATOR,OBJECT_NAME,OBJECT_ID,CENTER_NAME,REF_FRAME,TIME_SYSTEM,MEAN_ELEMENT_THEORY,EPOCH,MEAN_MOTION,ECCENTRICITY,INCLINATION,RA_OF_ASC_NODE,ARG_OF_PERICENTER,MEAN_ANOMALY,EPHEMERIS_TYPE,CLASSIFICATION_TYPE,NORAD_CAT_ID,ELEMENT_SET_NO,REV_AT_EPOCH,BSTAR,MEAN_MOTION_DOT,MEAN_MOTION_DDOT,SEMIMAJOR_AXIS,PERIOD,APOAPSIS,PERIAPSIS,OBJECT_TYPE,RCS_SIZE,COUNTRY_CODE,LAUNCH_DATE,SITE,DECAY_DATE,FILE,GP_ID,TLE_LINE0,TLE_LINE1,TLE_LINE2
2,GENERATED VIA SPACE-TRACK.ORG API,2018-10-13T23:21:03,18 SPCS,JCSAT 2,1990-001B,EARTH,TEME,UTC,SGP4,2018-10-13T07:57:42.695424,0.98535831,0.0063888,13.6296,34.5945,252.4909,292.0305,0,U,20402,999,8770,0.0,-1e-08,0,42658.513,1461.397,36552.915,36007.841,PAYLOAD,LARGE,JPN,1990-01-01,AFETR,,2344876,123836418,0 JCSAT 2,1 20402U 90001B   18286.33174416 -.00000001 +00000-0 +00000-0 0  9994,2 20402 013.6296 034.5945 0063888 252.4909 292.0305 00.98535831087706
2,GENERATED VIA SPACE-TRACK.ORG API,2018-10-13T22:34:17,18 SPCS,JCSAT 2,1990-001B,EARTH,TEME,UTC,SGP4,2018-10-13T19:12:55.742688,0.98535888,0.0063908,13.6302,34.5901,252.5145,98.3484,0,U,20402,999,8769,0.0,4e-08,0,42658.497,1461.396,36552.984,36007.74,PAYLOAD,LARGE,JPN,1990-01-01,AFETR,,2344808,123831786,0 JCSAT 2,1 20402U 90001B   18286.80064517  .00000004  00000-0  00000+0 0  9997,2 20402  13.6302  34.5901 0063908 252.5145  98.3484  0.98535888 87697
2,GENERATED VIA SPACE-TRACK.ORG API,2018-10-14T18:43:20,18 SPCS,JCSAT 2,1990-001B,EARTH,TEME,UTC,SGP4,2018-10-13T21:59:05.324640,0.98535901,0.0063917,13.6304,34.5889,252.5169,139.2799,0,U,20402,999,8771,0.0,5e-08,0,42658.493,1461.396,36553.018,36007.698,PAYLOAD,LARGE,JPN,1990-01-01,AFETR,,2345193,123851041,0 JCSAT 2,1 20402U 90001B   18286.91603385 +.00000005 +00000-0 +00000-0 0  9993,2 20402 013.6304 034.5889 0063917 252.5169 139.2799 00.98535901087713
2,GENERATED VIA SPACE-TRACK.ORG API,2018-10-14T22:06:33,18 SPCS,JCSAT 2,1990-001B,EARTH,TEME,UTC,SGP4,2018-10-14T08:58:21.294048,0.9853594,0.0063934,13.6309,34.5846,252.5395,301.6677,0,U,20402,999,8771,0.0,9e-08,0,42658.482,1461.395,36553.079,36007.614,PAYLOAD,LARGE,JPN,1990-01-01,AFETR,,2345218,123859002,0 JCSAT 2,1 20402U 90001B   18287.37385757 +.00000009 +00000-0 +00000-0 0  9998,2 20402 013.6309 034.5846 0063934 252.5395 301.6677 00.98535940087714
2,GENERATED VIA SPACE-TRACK.ORG API,2018-10-16T06:28:17,18 SPCS,JCSAT 2,1990-001B,EARTH,TEME,UTC,SGP4,2018-10-15T21:06:55.457856,0.98536094,0.0063984,13.6325,34.5701,252.6116,115.8176,0,U,20402,999,8771,0.0,1.1e-07,0,42658.437,1461.393,36553.248,36007.356,PAYLOAD,LARGE,JPN,1990-01-01,AFETR,,2345950,123879734,0 JCSAT 2,1 20402U 90001B   18288.87980854  .00000011  00000-0  00000+0 0  9995,2 20402  13.6325  34.5701 0063984 252.6116 115.8176  0.98536094 87719
2,GENERATED VIA SPACE-TRACK.ORG API,2018-10-16T16:13:10,18 SPCS,JCSAT 2,1990-001B,EARTH,TEME,UTC,SGP4,2018-10-15T21:06:55.457856,0.98536094,0.0063984,13.6325,34.5701,252.6116,115.8176,0,U,20402,999,8773,0.0,1.1e-07,0,42658.437,1461.393,36553.248,36007.356,PAYLOAD,LARGE,JPN,1990-01-01,AFETR,,2346196,123889095,0 JCSAT 2,1 20402U 90001B   18288.87980854 +.00000011 +00000-0 +00000-0 0  9996,2 20402 013.6325 034.5701 0063984 252.6116 115.8176 00.98536094087731
2,GENERATED VIA SPACE-TRACK.ORG API,2018-10-17T04:07:56,18 SPCS,JCSAT 2,1990-001B,EARTH,TEME,UTC,SGP4,2018-10-16T21:12:29.493216,0.9853634,0.0064018,13.6336,34.5605,252.6638,111.8792,0,U,20402,999,8774,0.0,4e-08,0,42658.366,1461.389,36553.322,36007.141,PAYLOAD,LARGE,JPN,1990-01-01,AFETR,,2346331,123901542,0 JCSAT 2,1 20402U 90001B   18289.88367469 +.00000004 +00000-0 +00000-0 0  9991,2 20402 013.6336 034.5605 0064018 252.6638 111.8792 00.98536340087749
2,GENERATED VIA SPACE-TRACK.ORG API,2018-10-18T06:32:15,18 SPCS,JCSAT 2,1990-001B,EARTH,TEME,UTC,SGP4,2018-10-18T00:41:51.929664,0.98536754,0.0064059,13.6349,34.5496,252.7211,158.1462,0,U,20402,999,8773,0.0,-1.1e-07,0,42658.247,1461.383,36553.376,36006.847,PAYLOAD,LARGE,JPN,1990-01-01,AFETR,,2346910,123930677,0 JCSAT 2,1 20402U 90001B   18291.02907326 -.00000011  00000-0  00000+0 0  9990,2 20402  13.6349  34.5496 0064059 252.7211 158.1462  0.98536754 87730
2,GENERATED VIA SPACE-TRACK.ORG API,2018-10-19T05:06:40,18 SPCS,JCSAT 2,1990-001B,EARTH,TEME,UTC,SGP4,2018-10-18T21:23:33.696672,0.98537135,0.006408,13.6358,34.5414,252.7643,103.9974,0,U,20402,999,8775,0.0,-2.6e-07,0,42658.137,1461.377,36553.355,36006.648,PAYLOAD,LARGE,JPN,1990-01-01,AFETR,,2347328,123942835,0 JCSAT 2,1 20402U 90001B   18291.89136223 -.00000026 +00000-0 +00000-0 0  9992,2 20402 013.6358 034.5414 0064080 252.7643 103.9974 00.98537135087755
2,GENERATED VIA SPACE-TRACK.ORG API,2018-10-20T16:59:31,18 SPCS,JCSAT 2,1990-001B,EARTH,TEME,UTC,SGP4,2018-10-19T21:28:56.239968,0.98537549,0.0064102,13.6369,34.5319,252.813,100.019,0,U,20402,999,8776,0.0,-4.8e-07,0,42658.017,1461.371,36553.329,36006.436,PAYLOAD,LARGE,JPN,1990-01-01,AFETR,,2348144,123980678,0 JCSAT 2,1 20402U 90001B   18292.89509537 -.00000048 +00000-0 +00000-0 0  9999,2 20402 013.6369 034.5319 0064102 252.8130 100.0190 00.98537549087766
2,GENERATED VIA SPACE-TRACK.ORG API,2018-10-21T06:34:16,18 SPCS,JCSAT 2,1990-001B,EARTH,TEME,UTC,SGP4,2018-10-20T22:22:24.870720,0.98538072,0.0064125,13.638,34.5221,252.862,107.8952,0,U,20402,999,8776,0.0,-7.3e-07,0,42657.866,1461.364,36553.275,36006.188,PAYLOAD,LARGE,JPN,1990-01-01,AFETR,,2348380,124000378,0 JCSAT 2,1 20402U 90001B   18293.93223230 -.00000073  00000-0  00000+0 0  9995,2 20402  13.6380  34.5221 0064125 252.8620 107.8952  0.98538072 87763
2,GENERATED VIA SPACE-TRACK.ORG API,2018-10-21T17:10:59,18 SPCS,JCSAT 2,1990-001B,EARTH,TEME,UTC,SGP4,2018-10-20T22:22:24.870720,0.98538072,0.0064125,13.638,34.5221,252.862,107.8952,0,U,20402,999,8778,0.0,-7.3e-07,0,42657.866,1461.364,36553.275,36006.188,PAYLOAD,LARGE,JPN,1990-01-01,AFETR,,2348645,124009439,0 JCSAT 2,1 20402U 90001B   18293.93223230 -.00000073 +00000-0 +00000-0 0  9996,2 20402 013.6380 034.5221 0064125 252.8620 107.8952 00.98538072087785
2,GENERATED VIA SPACE-TRACK.ORG API,2018-10-23T04:18:50,18 SPCS,JCSAT 2,1990-001B,EARTH,TEME,UTC,SGP4,2018-10-21T21:40:03.847584,0.98538464,0.0064142,13.6391,34.5129,252.9052,92.1677,0,U,20402,999,8778,0.0,-9.8e-07,0,42657.753,1461.358,36553.234,36006.003,PAYLOAD,LARGE,JPN,1990-01-01,AFETR,,2349231,124040360,0 JCSAT 2,1 20402U 90001B   18294.90282231 -.00000098 +00000-0 +00000-0 0  9997,2 20402 013.6391 034.5129 0064142 252.9052 092.1677 00.98538464087788
2,GENERATED VIA SPACE-TRACK.ORG API,2018-10-23T17:27:00,18 SPCS,JCSAT 2,1990-001B,EARTH,TEME,UTC,SGP4,2018-10-22T11:17:42.577152,0.98538738,0.006412,13.6397,34.5076,252.9189,293.5871,0,U,20402,999,8779,0.0,-1.12e-06,0,42657.674,1461.354,36553.06,36006.018,PAYLOAD,LARGE,JPN,1990-01-01,AFETR,,2349535,124055193,0 JCSAT 2,1 20402U 90001B   18295.47063168 -.00000112 +00000-0 +00000-0 0  9993,2 20402 013.6397 034.5076 0064120 252.9189 293.5871 00.98538738087790
2,GENERATED VIA SPACE-TRACK.ORG API,2018-10-23T06:44:16,18 SPCS,JCSAT 2,1990-001B,EARTH,TEME,UTC,SGP4,2018-10-22T23:28:39.350208,0.98538904,0.0064135,13.6402,34.5027,252.9449,113.6324,0,U,20402,999,8778,0.0,-1.25e-06,0,42657.626,1461.351,36553.076,36005.907,PAYLOAD,LARGE,JPN,1990-01-01,AFETR,,2349314,124047532,0 JCSAT 2,1 20402U 90001B   18295.97823322 -.00000125  00000-0  00000+0 0  9997,2 20402  13.6402  34.5027 0064135 252.9449 113.6324  0.98538904 87787
2,GENERATED VIA SPACE-TRACK.ORG API,2018-10-24T22:33:23,18 SPCS,JCSAT 2,1990-001B,EARTH,TEME,UTC,SGP4,2018-10-24T02:39:18.891648,0.98539311,0.0064141,13.6415,34.492,252.9905,155.3113,0,U,20402,999,8781,0.0,-1.53e-06,0,42657.509,1461.345,36552.983,36005.764,PAYLOAD,LARGE,JPN,1990-01-01,AFETR,,2349601,124085336,0 JCSAT 2,1 20402U 90001B   18297.11063532 -.00000153 +00000-0 +00000-0 0  9996,2 20402 013.6415 034.4920 0064141 252.9905 155.3113 00.98539311087812
2,GENERATED VIA SPACE-TRACK.ORG API,2018-10-26T02:59:03,18 SPCS,JCSAT 2,1990-001B,EARTH,TEME,UTC,SGP4,2018-10-24T23:42:42.892416,0.98539537,0.0064156,13.6425,34.4837,253.0204,106.529,0,U,20402,999,8781,0.0,-1.72e-06,0,42657.444,1461.342,36552.982,36005.635,PAYLOAD,LARGE,JPN,1990-01-01,AFETR,,2349668,124107917,0 JCSAT 2,1 20402U 90001B   18297.98799644 -.00000172 +00000-0 +00000-0 0  9992,2 20402 013.6425 034.4837 0064156 253.0204 106.5290 00.98539537087814
2,GENERATED VIA SPACE-TRACK.ORG API,2018-10-26T12:50:19,18 SPCS,JCSAT 2,1990-001B,EARTH,TEME,UTC,SGP4,2018-10-26T03:10:07.151808,0.98539751,0.006417,13.6436,34.4728,253.0592,152.3415,0,U,20402,999,8781,0.0,-1.93e-06,0,42657.382,1461.339,36552.979,36005.514,PAYLOAD,LARGE,JPN,1990-01-01,AFETR,,2350044,124126005,0 JCSAT 2,1 20402U 90001B   18299.13202722 -.00000193  00000-0  00000+0 0  9999,2 20402  13.6436  34.4728 0064170 253.0592 152.3415  0.98539751 87817
2,GENERATED VIA SPACE-TRACK.ORG API,2018-10-28T05:09:15,18 SPCS,JCSAT 2,1990-001B,EARTH,TEME,UTC,SGP4,2018-10-27T02:01:50.626272,0.98539847,0.006418,13.6447,34.4638,253.0884,130.2486,0,U,20402,999,8784,0.0,-2.07e-06,0,42657.354,1461.337,36552.994,36005.444,PAYLOAD,LARGE,JPN,1990-01-01,AFETR,,2350835,124156821,0 JCSAT 2,1 20402U 90001B   18300.08461373 -.00000207 +00000-0 +00000-0 0  9992,2 20402 013.6447 034.4638 0064180 253.0884 130.2486 00.98539847087846
2,GENERATED VIA SPACE-TRACK.ORG API,2018-10-28T21:40:16,18 SPCS,JCSAT 2,1990-001B,EARTH,TEME,UTC,SGP4,2018-10-28T01:39:10.914912,0.98539854,0.0064196,13.6457,34.4544,253.1111,119.3995,0,U,20402,999,8785,0.0,-2.17e-06,0,42657.352,1461.337,36553.06,36005.374,PAYLOAD,LARGE,JPN,1990-01-01,AFETR,,2351240,124174181,0 JCSAT 2,1 20402U 90001B   18301.06887633 -.00000217 +00000-0 +00000-0 0  9993,2 20402 013.6457 034.4544 0064196 253.1111 119.3995 00.98539854087856
